206P/Barnard-Boattini,e,33.6331,202.3132,189.5624,3.492803,0.1509882,0.55040169,264.5319,12/21.0/2025,2000,g 19.0,4.0
# From MPEC 2025-W75
207P/NEAT,e,10.1970,198.1174,273.0587,3.886905,0.1286170,0.75853873,88.6260,12/21.0/2025,2000,g 16.0,4.0
# From MPEC 2025-W75
208P/McMillan,e,4.4058,36.2673,311.0587,4.048918,0.1209750,0.37466291,58.4280,12/21.0/2025,2000,g 12.5,4.0
# From MPEC 2025-W75
209P/LINEAR,e,21.2849,62.7559,152.4748,2.957314,0.1938018,0.67411838,101.6474,12/21.0/2025,2000,g 17.0,2.0
# From MPEC 2025-XC7
210P/Christensen,e,10.2873,93.7968,345.9492,3.160434,0.1754220,0.83406830,4.9598,12/21.0/2025,2000,g 13.5,4.0
# From MPEC 2025-W75
211P/Hill,e,18.9263,117.1001,4.3701,3.548789,0.1474293,0.34457466,172.8632,12/21.0/2025,2000,g 12.5,4.0
# From MPEC 2025-W75
212P/NEAT,e,22.1493,97.9713,14.0815,3.904043,0.1277710,0.58676155,77.2769,12/21.0/2025,2000,g 17.0,2.0
# From MPEC 2025-W75
213P/VanNess,e,10.5734,310.4873,7.2992,3.362346,0.1598602,0.41247708,122.1754,12/21.0/2025,2000,g 10.5,4.0
# From MPEC 2025-GB9
213P-B/Van Ness,e,10.5726,310.4844,7.3159,3.362173,0.1598725,0.41236054,122.2051,12/21.0/2025,2000,g 17.0,4.0
# From MPC 76570
213P-C/Van Ness,e,10.3757,4.2277,313.2813,3.357542,0.1602035,0.41107099,122.9423,12/21.0/2025,2000,g 17.5,4.0
# From MPC 76571
213P-D/Van Ness,e,10.2589,312.6950,4.1428,3.408406,0.1566308,0.37502761,359.9537,06/18.0/2011,2000,g 17.5,4.0
# From MPEC 2025-W75
214P/LINEAR,e,15.1948,348.2249,190.1081,3.615909,0.1433434,0.48650295,169.3308,12/21.0/2025,2000,g 13.0,4.0
# From MPEC 2025-W75
215P/NEAT,e,10.5759,56.6813,262.1600,4.336821,0.1091307,0.16484588,243.3632,12/21.0/2025,2000,g 11.0,4.0
# From MPEC 2025-W75
216P/LINEAR,e,9.0621,359.7681,151.7910,3.860642,0.1299316,0.44912252,92.7574,12/21.0/2025,2000,g 13.0,4.0
# From MPEC 2025-XC7
217P/LINEAR,e,12.8675,125.3677,247.0410,3.946947,0.1256933,0.68933157,26.3992,12/21.0/2025,2000,g 12.0,4.0
# From MPEC 2025-W75
218P/LINEAR,e,2.7267,174.7206,61.4043,3.059478,0.1841760,0.63083176,346.5764,12/21.0/2025,2000,g 16.0,4.0
# From MPEC 2025-W75
219P/LINEAR,e,11.4509,230.4898,108.5080,3.661442,0.1406779,0.35764979,94.6877,12/21.0/2025,2000,g 11.0,4.0
# From MPEC 2025-W75
220P/McNaught,e,8.1206,150.0855,180.5710,3.120745,0.1787791,0.50036456,328.6897,12/21.0/2025,2000,g 15.0,4.0
# From MPEC 2025-W75
221P/LINEAR,e,10.4125,223.0287,45.5052,3.380495,0.1585746,0.52363933,228.0001,12/21.0/2025,2000,g 14.5,4.0
# From MPEC 2025-W75
222P/LINEAR,e,5.0996,6.7244,346.2838,2.895487,0.2000422,0.71490240,117.4546,12/21.0/2025,2000,g 20.0,4.0
# From MPEC 2025-W75
223P/Skiff,e,27.0062,346.6925,37.9902,4.158242,0.1162357,0.41612089,292.4829,12/21.0/2025,2000,g 12.0,4.0
# From MPEC 2025-W75
224P/LINEAR-NEAT,e,13.2987,40.0388,16.8317,3.447730,0.1539587,0.40536396,181.3529,12/21.0/2025,2000,g 15.5,4.0
# From MPEC 2025-W75
225P/LINEAR,e,21.3573,14.2143,3.9047,3.647596,0.1414796,0.63799321,122.5667,12/21.0/2025,2000,g 18.0,4.0
# From MPEC 2025-W75
226P/Pigott-LINEAR-Kowalski,e,44.0428,54.0179,341.0399,3.765532,0.1348853,0.52868817,97.7978,12/21.0/2025,2000,g 12.5,4.0
# From MPEC 2025-W75
227P/Catalina-LINEAR,e,7.5066,36.7905,105.6121,3.437942,0.1546167,0.52779047,100.9004,12/21.0/2025,2000,g 16.5,2.0
# From MPEC 2025-W75
228P/LINEAR,e,7.9171,30.9501,114.8725,4.160976,0.1161211,0.17766027,245.1330,12/21.0/2025,2000,g 14.5,2.0
# From MPEC 2025-W75
229P/Gibbs,e,26.0991,157.8547,224.3015,3.926712,0.1266661,0.37843433,36.7319,12/21.0/2025,2000,g 13.0,4.0
# From MPEC 2025-W75
230P/LINEAR,e,15.4729,106.9238,313.5920,3.455362,0.1534489,0.54529450,210.5724,12/21.0/2025,2000,g 13.0,4.0
# From MPEC 2025-W75
231P/LINEAR-NEAT,e,12.2752,132.7511,43.4681,4.066420,0.1201948,0.23994035,289.0316,12/21.0/2025,2000,g 14.5,2.0
# From MPEC 2025-W75
232P/Hill,e,14.6429,55.9968,53.3532,4.468990,0.1043254,0.33622156,255.1853,12/21.0/2025,2000,g 11.5,4.0
# From MPEC 2025-XC7
233P/LaSagra,e,11.2899,74.9196,26.9854,3.027688,0.1870843,0.41316147,356.6136,12/21.0/2025,2000,g 15.0,4.0
# From MPEC 2025-W75
234P/LINEAR,e,11.5331,179.5568,357.4733,3.798958,0.1331090,0.25744771,56.3327,12/21.0/2025,2000,g 12.0,4.0
# From MPEC 2025-XC7
235P/LINEAR,e,9.8132,200.1701,352.1960,3.445652,0.1540980,0.42596739,359.7425,12/21.0/2025,2000,g 12.0,4.0
# From MPEC 2025-W75
236P/LINEAR,e,16.3450,245.5480,119.4812,3.729541,0.1368425,0.50986472,43.7910,12/21.0/2025,2000,g 14.0,4.0
# From MPEC 2025-W75
237P/LINEAR,e,13.9986,245.3565,25.5785,3.519406,0.1492795,0.43165904,142.1876,12/21.0/2025,2000,g 14.5,2.0
# From MPEC 2025-W75
238P/Read,e,1.2636,51.6511,324.2474,3.168139,0.1747824,0.25038182,226.4282,12/21.0/2025,2000,g 14.5,4.0
# From MPEC 2025-W75
239P/LINEAR,e,11.3053,255.9228,220.4158,4.462883,0.1045396,0.63160694,264.9033,12/21.0/2025,2000,g 17.5,2.0
# From MPEC 2025-XC7
240P/NEAT,e,23.5364,74.9118,352.0761,3.861351,0.1298958,0.45054187,0.1369,12/21.0/2025,2000,g 11.0,4.0
# From MPEC 2025-XC7
240P-B/NEAT,e,23.5319,74.9141,352.0532,3.860206,0.1299536,0.45040318,0.1380,12/21.0/2025,2000,g 15.5,4.0
# From MPEC 2025-W75
241P/LINEAR,e,21.0943,305.3646,111.6837,4.928775,0.0900732,0.60989242,144.9237,12/21.0/2025,2000,g 13.5,4.0
# From MPEC 2025-XC7
242P/Spahr,e,32.4306,180.1772,245.0639,5.538110,0.0756244,0.28279334,27.4104,12/21.0/2025,2000,g  8.0,4.0
# From MPEC 2025-W75
243P/NEAT,e,7.6444,87.5756,283.7878,3.825731,0.1317141,0.36012390,351.2287,12/21.0/2025,2000,g 12.5,4.0
# From MPEC 2025-W75
244P/Scotti,e,2.2572,354.0016,93.6074,4.906162,0.0906966,0.19970928,102.1605,12/21.0/2025,2000,g  9.0,4.0
# From MPEC 2025-W75
245P/WISE,e,21.1710,316.6666,316.7021,4.053919,0.1207512,0.45593025,347.9078,12/21.0/2025,2000,g 14.0,4.0
# From MPEC 2025-W75
246P/NEAT,e,17.2644,74.0245,185.0002,4.327118,0.1094979,0.21220895,205.7660,12/21.0/2025,2000,g 10.5,4.0
# From MPEC 2025-W75
247P/LINEAR,e,13.6591,53.9988,47.5132,3.962791,0.1249403,0.62560212,321.3976,12/21.0/2025,2000,g 16.5,2.0
# From MPEC 2025-XC7
248P/Gibbs,e,6.3510,207.7873,210.0023,5.988462,0.0672560,0.63968734,6.5275,12/21.0/2025,2000,g 14.0,4.0
# From MPEC 2025-W75
249P/LINEAR,e,8.3628,238.9280,65.9166,2.769680,0.2138256,0.81942821,68.8973,12/21.0/2025,2000,g 15.5,4.0
# From MPEC 2025-W75
250P/Larson,e,13.1518,73.3001,45.7041,3.775568,0.1343478,0.39813712,29.3273,12/21.0/2025,2000,g 14.5,4.0
# From MPEC 2025-W75
251P/LINEAR,e,23.3903,219.3366,31.1733,3.511196,0.1498033,0.50416578,101.4090,12/21.0/2025,2000,g 16.5,2.0
# From MPEC 2025-W75
252P/LINEAR,e,10.4207,190.9075,343.3707,3.051600,0.1848897,0.67116244,300.5049,12/21.0/2025,2000,g 17.5,4.0
# From MPEC 2025-W75
253P/PANSTARRS,e,4.9505,146.7946,230.7740,3.463648,0.1528986,0.41569130,65.1378,12/21.0/2025,2000,g 14.5,4.0
# From MPEC 2025-W75
254P/McNaught,e,32.5362,129.1755,219.6951,4.620716,0.0992294,0.31828657,189.5855,12/21.0/2025,2000,g 11.0,4.0
# From MPEC 2025-W75
255P/Levy,e,13.4265,275.6462,186.0359,2.941893,0.1953276,0.71202477,234.3879,12/21.0/2025,2000,g 20.0,4.0
# From MPEC 2025-W75
256P/LINEAR,e,27.6226,81.3150,124.0438,4.634029,0.0988021,0.41820454,100.2808,12/21.0/2025,2000,g 14.0,2.0
# From MPEC 2025-W75
257P/Catalina,e,20.2133,207.7324,117.6940,3.768746,0.1347128,0.42868494,260.0923,12/21.0/2025,2000,g 11.5,4.0
# From MPEC 2025-W75
258P/PANSTARRS,e,6.7512,126.2365,25.6552,4.387663,0.1072393,0.20981603,215.5737,12/21.0/2025,2000,g 13.0,4.0
# From MPEC 2025-W75
259P/Garradd,e,15.8964,51.4360,257.3899,2.729765,0.2185326,0.33875490,308.8654,12/21.0/2025,2000,g 15.5,4.0
# From MPEC 2025-W75
260P/McNaught,e,15.0389,349.2749,18.5142,3.623602,0.1428872,0.60870944,327.5636,12/21.0/2025,2000,g 13.5,4.0
# From MPEC 2025-XC7
261P/Larson,e,6.0734,291.0501,67.3665,3.488742,0.1512519,0.42265862,359.0302,12/21.0/2025,2000,g 14.0,4.0
# From MPEC 2025-W75
262P/McNaught-Russell,e,29.2540,217.8561,171.0948,6.869731,0.0547387,0.81572441,260.3366,12/21.0/2025,2000,g 13.5,4.0
# From MPEC 2025-W75
263P/Gibbs,e,11.5266,105.5035,35.0291,3.040568,0.1858969,0.59420579,196.0894,12/21.0/2025,2000,g 18.0,4.0
# From MPEC 2025-W75
264P/Larsen,e,25.5439,218.9916,341.3938,4.039495,0.1213986,0.33718570,304.5356,12/21.0/2025,2000,g 13.0,4.0
# From MPEC 2025-W75
265P/LINEAR,e,14.3319,342.8770,33.6049,4.261561,0.1120343,0.64644323,199.0604,12/21.0/2025,2000,g 14.5,4.0
# From MPEC 2025-W75
266P/Christensen,e,3.4284,4.9827,97.8126,3.527885,0.1487416,0.34066643,307.6609,12/21.0/2025,2000,g 12.5,4.0
# From MPEC 2025-W75
267P/LONEOS,e,6.1402,228.4135,114.2512,3.205478,0.1717374,0.61553396,103.8781,12/21.0/2025,2000,g 19.5,4.0
# From MPEC 2025-W75
268P/Bernardi,e,15.6613,125.6297,0.0420,4.592267,0.1001529,0.47454568,36.8018,12/21.0/2025,2000,g 14.0,4.0
# From MPEC 2025-W75
269P/Jedicke,e,7.0828,241.7506,225.7796,7.057001,0.0525743,0.43367690,214.9082,12/21.0/2025,2000,g 10.0,4.0
# From MPEC 2025-W75
270P/Gehrels,e,2.9248,223.0293,209.9550,6.647669,0.0575043,0.47014029,262.2356,12/21.0/2025,2000,g  8.0,4.0
# From MPEC 2025-W75
271P/vanHouten-Lemmon,e,6.8636,9.2236,36.6863,7.032876,0.0528451,0.39561927,239.3101,12/21.0/2025,2000,g 11.0,4.0
# From MPEC 2025-W75
272P/NEAT,e,18.0834,109.4391,27.9007,4.462070,0.1045682,0.45564278,130.9377,12/21.0/2025,2000,g 16.0,2.0
# From MPEC 2025-WD0
273P/Pons-Gambart,e,136.2091,320.3462,20.1008,31.90231,0.0054698,0.97475842,0.0000,12/22.6414/2012,2000,g 11.5,4.0
# From MPEC 2025-W75
274P/Tombaugh-Tenagra,e,15.8193,81.3158,38.5144,4.378668,0.1075700,0.44032275,145.3800,12/21.0/2025,2000,g 13.0,4.0
# From MPEC 2025-W75
275P/Hermann,e,21.2493,348.7215,173.8407,5.799800,0.0705642,0.71393582,338.0594,12/21.0/2025,2000,g 15.0,4.0
# From MPEC 2025-X35
276P/Vorobjov,e,14.7359,211.0063,199.7292,5.384622,0.0788808,0.27600603,29.4895,12/21.0/2025,2000,g 11.5,4.0
# From MPEC 2025-W75
277P/LINEAR,e,16.7931,276.2597,152.4502,3.853536,0.1302912,0.50630639,236.4703,12/21.0/2025,2000,g 14.0,4.0
# From MPEC 2025-W75
278P/McNaught,e,6.6347,10.9557,242.8701,3.619524,0.1431288,0.45461073,269.3983,12/21.0/2025,2000,g 14.0,4.0
# From MPEC 2025-W75
